SKYSAT-A                
1 39418U 13066C   26073.39926228  .00003627  00000+0  21167-3 0  9997
2 39418  97.3949 125.7966 0019954 282.9967  76.9036 15.12392053674150
SKYSAT-B                
1 40072U 14037D   26073.37026915  .00001794  00000+0  20337-3 0  9997
2 40072  98.3729  27.0082 0004611 214.9053 145.1860 14.87747053631863
SKYSAT-C1               
1 41601U 16040C   26073.52622508  .00013465  00000+0  40321-3 0  9992
2 41601  96.9698 110.4281 0003154  43.4148 316.7344 15.34623748543345
SKYSAT-C4               
1 41771U 16058B   26073.57626510  .00022462  00000+0  46837-3 0  9996
2 41771  96.9288  99.4611 0001269 131.7607 228.3752 15.45566489530849
SKYSAT-C5               
1 41772U 16058C   26073.58676819  .00011567  00000+0  35255-3 0  9991
2 41772  97.0612 118.4402 0000371  96.6128 263.5158 15.34105983529242
SKYSAT-C2               
1 41773U 16058D   26073.58234431  .00017122  00000+0  43269-3 0  9999
2 41773  97.0277  99.3386 0004672  57.6603 302.5096 15.39848661530486
SKYSAT-C3               
1 41774U 16058E   26073.59877289  .00028643  00000+0  53781-3 0  9995
2 41774  96.9177 108.2625 0001752 113.2146 246.9290 15.48568039531450
SKYSAT-C11              
1 42987U 17068A   26073.48611846  .00041844  00000+0  67615-3 0  9996
2 42987  97.4205 218.6309 0000441  79.5811 280.5492 15.52752003468523
SKYSAT-C10              
1 42988U 17068B   26073.30174538  .00013494  00000+0  42814-3 0  9994
2 42988  97.4338 209.4353 0001009  94.4308 265.7050 15.32803097467810
SKYSAT-C9               
1 42989U 17068C   26073.32954043  .00018542  00000+0  48014-3 0  9991
2 42989  97.4263 209.5395 0009898 117.3388 242.8866 15.39055145468151
SKYSAT-C8               
1 42990U 17068D   26073.34504515  .00014552  00000+0  43190-3 0  9997
2 42990  97.4353 208.9335 0001244  95.4723 264.6662 15.34907311467753
SKYSAT-C7               
1 42991U 17068E   26073.33528006  .00015266  00000+0  45328-3 0  9996
2 42991  97.4368 209.9068 0007286  89.7280 270.4798 15.34859060467819
SKYSAT-C6               
1 42992U 17068F   26073.33836253  .00013646  00000+0  43530-3 0  9996
2 42992  97.4400 210.1814 0003746 116.9689 243.1936 15.32621955467788
SKYSAT-C12              
1 43797U 18099AR  26073.61396582  .00023902  00000+0  49394-3 0  9992
2 43797  96.9378 100.8116 0005943 126.0100 234.1703 15.45801240407238
SKYSAT-C13              
1 43802U 18099AW  26073.61386194  .00119345  00000+0  70737-3 0  9999
2 43802  96.9400 121.2632 0004574 183.6526 176.4709 15.77703043407940
FLOCK 4Q-16             
1 58271U 23174R   26073.48386534  .00028727  00000+0  60815-3 0  9997
2 58271  97.3855 159.6936 0008117 144.0284 216.1512 15.45046298130939
